[{"OBJECT_NAME":"SAUDISAT 5A","OBJECT_ID":"2018-102A","EPOCH":"2026-03-09T23:40:00.596928","MEAN_MOTION":15.26941021,"ECCENTRICITY":0.00113651,"INCLINATION":97.3185,"RA_OF_ASC_NODE":132.4981,"ARG_OF_PERICENTER":121.7113,"MEAN_ANOMALY":238.5235,"EPHEMERIS_TYPE":0,"CLASSIFICATION_TYPE":"U","NORAD_CAT_ID":43831,"ELEMENT_SET_NO":999,"REV_AT_EPOCH":40053,"BSTAR":0.00030305233,"MEAN_MOTION_DOT":7.96e-5,"MEAN_MOTION_DDOT":0},{"OBJECT_NAME":"STARLINK-30989","OBJECT_ID":"2023-191C","EPOCH":"2026-03-09T22:00:01.999584","MEAN_MOTION":15.27580535,"ECCENTRICITY":0.00010754,"INCLINATION":43.0001,"RA_OF_ASC_NODE":102.4158,"ARG_OF_PERICENTER":261.9349,"MEAN_ANOMALY":73.7402,"EPHEMERIS_TYPE":0,"CLASSIFICATION_TYPE":"U","NORAD_CAT_ID":58510,"ELEMENT_SET_NO":999,"REV_AT_EPOCH":537,"BSTAR":0.00099358738,"MEAN_MOTION_DOT":0.0002718,"MEAN_MOTION_DDOT":0}]
